GSAT0103 (GALILEO-FM3)  
1 38857U 12055A   26079.31455252  .00000056  00000+0  00000+0 0  9994
2 38857  55.7525 103.9829 0005720 287.6222  72.3876  1.70473352 83496
SJ-9A                   
1 38860U 12056A   26080.18630162  .00001121  00000+0  13601-3 0  9990
2 38860  97.6631  55.3776 0025430 183.6191 176.4845 14.85257233686527
SJ-9B                   
1 38861U 12056B   26080.20582087  .00001944  00000+0  20189-3 0  9998
2 38861  97.5938  67.5719 0016245 142.6613 217.5738 14.90953720726610
INTELSAT 23 (IS-23)     
1 38867U 12057A   26080.18971244 -.00000283  00000+0  00000+0 0  9991
2 38867   0.0326 252.7427 0000757 104.5183 196.7323  1.00269585 49072
BEIDOU-2 G6             
1 38953U 12059A   26080.07418531 -.00000171  00000+0  00000+0 0  9998
2 38953   4.1963  74.4583 0010400 307.0916 267.7656  1.00273810 49021
LUCH-5B                 
1 38977U 12061A   26080.19690581 -.00000132  00000+0  00000+0 0  9994
2 38977  10.2936  50.7348 0003238 223.0680 319.4559  1.00270564 48723
YAMAL 300K              
1 38978U 12061B   26079.38239123  .00000074  00000+0  00000+0 0  9999
2 38978   0.0121 220.5658 0000449 331.1060 306.8426  1.00271691 48749
STAR ONE C3             
1 38991U 12062A   26080.14558349 -.00000247  00000+0  00000+0 0  9998
2 38991   0.0312 272.4510 0002271 104.3042 139.2991  1.00269366 48880
EUTELSAT 21B            
1 38992U 12062B   26080.20444585  .00000132  00000+0  00000+0 0  9994
2 38992   0.0698   5.0403 0002894 353.8889 274.9687  1.00272733 48948
ECHOSTAR 16             
1 39008U 12065A   26080.08274390  .00000000  00000+0  00000+0 0  9991
2 39008   0.0197 168.5160 0002000 184.9430 153.4433  1.00269200 48765
YAOGAN-16 01A           
1 39011U 12066A   26079.66354234 -.00000029  00000+0  59715-4 0  9998
2 39011  63.3542 158.4299 0428468  26.3787 335.8377 13.45504232654237
YAOGAN-16 01B           
1 39012U 12066B   26079.66798553 -.00000039  00000+0  50418-4 0  9997
2 39012  63.3547 158.6354 0428628  26.1232 336.0747 13.45502894654199
YAOGAN-16 01C           
1 39013U 12066C   26080.26184391 -.00000079  00000+0  11265-4 0  9996
2 39013  63.3557 156.5885 0428758  25.7051 336.4619 13.45494045654308
ZHONGXING-12            
1 39017U 12067A   26079.72767282 -.00000204  00000+0  00000+0 0  9996
2 39017   0.0066 139.9524 0003254 221.0534 166.6828  1.00269835 48629
PLEIADES 1B             
1 39019U 12068A   26080.26941015  .00000084  00000+0  27850-4 0  9990
2 39019  98.1998 156.5146 0001507  78.1809 281.9559 14.58535205708037
EUTELSAT 70B            
1 39020U 12069A   26080.17803043 -.00000041  00000+0  00000+0 0  9998
2 39020   0.0654 351.7598 0001852   1.7797 319.7268  1.00271479 48623
YAMAL 402               
1 39022U 12070A   26079.42669000  .00000089  00000+0  00000+0 0  9992
2 39022   1.0348  85.3170 0003933 271.4647  29.6827  1.00272918 48508
GOKTURK 2               
1 39030U 12073A   26080.26028907  .00000490  00000+0  78970-4 0  9995
2 39030  97.6872 282.0692 0000841  84.8318 275.2988 14.75448665711549
SKYNET 5D               
1 39034U 12075A   26080.21059920  .00000102  00000+0  00000+0 0  9999
2 39034   0.0702 349.6815 0003627   2.2676 315.3373  1.00269110 48273
MEXSAT 3                
1 39035U 12075B   26080.16225366 -.00000023  00000+0  00000+0 0  9996
2 39035   0.0100 171.5615 0001018 183.9869 126.7518  1.00268488  6174
COSMOS 2482 (RODNIK-S 4)
1 39057U 13001A   26080.22490353 -.00000073  00000+0 -59753-3 0  9996
2 39057  82.4930 275.0926 0027096 215.4089 144.5193 12.42993262597789
COSMOS 2483 (RODNIK-S 5)
1 39058U 13001B   26080.29360639  .00000005  00000+0 -36059-4 0  9996
2 39058  82.4937 269.6922 0016345 202.2128 157.8246 12.44022617590660
COSMOS 2484 (RODNIK-S 6)
1 39059U 13001C   26080.24678466 -.00000069  00000+0 -56676-3 0  9999
2 39059  82.4965 276.5836 0025751 224.4205 135.4810 12.42936504597636
TDRS 11                 
1 39070U 13004A   26080.15733370  .00000083  00000+0  00000+0 0  9991
2 39070   3.3921  29.6758 0004349 348.1862  43.0765  1.00268282 45810
GLOBALSTAR M097         
1 39072U 13005A   26079.87183832 -.00000139  00000+0 -19390-3 0  9993
2 39072  52.0040 152.1720 0000580 124.3188 235.7734 12.62259945605751
GLOBALSTAR M093         
1 39073U 13005B   26079.92488613 -.00000073  00000+0  17261-3 0  9996
2 39073  52.0095 145.3263 0000794 133.6214 226.4719 12.62264126605711
GLOBALSTAR M094         
1 39074U 13005C   26080.24178678 -.00000122  00000+0 -10343-3 0  9991
2 39074  51.9965  58.5649 0000486 110.8045 249.2874 12.62267214607365
GLOBALSTAR M096         
1 39075U 13005D   26079.77988234 -.00000092  00000+0  68004-4 0  9998
2 39075  52.0057 108.7039 0000542 118.9247 241.1674 12.62263924606224
GLOBALSTAR M078         
1 39076U 13005E   26079.99066166 -.00000184  00000+0 -44670-3 0  9999
2 39076  51.9873 192.1932 0001410  88.3638 271.7390 12.62275022604872
GLOBALSTAR M095         
1 39077U 13005F   26080.01728625 -.00000091  00000+0  73840-4 0  9998
2 39077  52.0072 189.5916 0001143 113.7153 246.3834 12.62276222604735
AMAZONAS 3              
1 39078U 13006A   26080.08274316 -.00000280  00000+0  00000+0 0  9993
2 39078   0.0377 231.4494 0002169 105.4216 170.5041  1.00273928 44031
