OBJECT_NAME,OBJECT_ID,EPOCH,MEAN_MOTION,ECCENTRICITY,INCLINATION,RA_OF_ASC_NODE,ARG_OF_PERICENTER,MEAN_ANOMALY,EPHEMERIS_TYPE,CLASSIFICATION_TYPE,NORAD_CAT_ID,ELEMENT_SET_NO,REV_AT_EPOCH,BSTAR,MEAN_MOTION_DOT,MEAN_MOTION_DDOT
GSAT0103 (GALILEO-FM3),2012-055A,2026-03-20T07:32:57.337728,1.70473352,.00057205,55.7525,103.9829,287.6222,72.3876,0,U,38857,999,8349,0,.56E-6,0
SJ-9A,2012-056A,2026-03-21T04:28:16.459968,14.85257233,.00254307,97.6631,55.3776,183.6191,176.4845,0,U,38860,999,68652,.13601374E-3,.1121E-4,0
SJ-9B,2012-056B,2026-03-21T04:56:22.923168,14.90953720,.00162452,97.5938,67.5719,142.6613,217.5738,0,U,38861,999,72661,.20188826E-3,.1944E-4,0
INTELSAT 23 (IS-23),2012-057A,2026-03-21T04:33:11.154816,1.00269585,.00007575,0.0326,252.7427,104.5183,196.7323,0,U,38867,999,4907,0,-.283E-5,0
BEIDOU-2 G6,2012-059A,2026-03-21T01:46:49.610784,1.00273810,.00104003,4.1963,74.4583,307.0916,267.7656,0,U,38953,999,4902,0,-.171E-5,0
LUCH-5B,2012-061A,2026-03-21T04:43:32.661984,1.00270564,.00032384,10.2936,50.7348,223.0680,319.4559,0,U,38977,999,4872,0,-.132E-5,0
YAMAL 300K,2012-061B,2026-03-20T09:10:38.602272,1.00271691,.00004494,0.0121,220.5658,331.1060,306.8426,0,U,38978,999,4874,0,.74E-6,0
STAR ONE C3,2012-062A,2026-03-21T03:29:38.413536,1.00269366,.00022711,0.0312,272.4510,104.3042,139.2991,0,U,38991,999,4888,0,-.247E-5,0
EUTELSAT 21B,2012-062B,2026-03-21T04:54:24.121440,1.00272733,.00028941,0.0698,5.0403,353.8889,274.9687,0,U,38992,999,4894,0,.132E-5,0
ECHOSTAR 16,2012-065A,2026-03-21T01:59:09.072960,1.00269200,.00020009,0.0197,168.5160,184.9430,153.4433,0,U,39008,999,4876,0,0,0
YAOGAN-16 01A,2012-066A,2026-03-20T15:55:30.058176,13.45504232,.0428468,63.3542,158.4299,26.3787,335.8377,0,U,39011,999,65423,.59714899E-4,-.29E-6,0
YAOGAN-16 01B,2012-066B,2026-03-20T16:01:53.949792,13.45502894,.0428628,63.3547,158.6354,26.1232,336.0747,0,U,39012,999,65419,.50418301E-4,-.39E-6,0
YAOGAN-16 01C,2012-066C,2026-03-21T06:17:03.313824,13.45494045,.04287589,63.3557,156.5885,25.7051,336.4619,0,U,39013,999,65430,.11264845E-4,-.79E-6,0
ZHONGXING-12,2012-067A,2026-03-20T17:27:50.931648,1.00269835,.0003254,0.0066,139.9524,221.0534,166.6828,0,U,39017,999,4862,0,-.204E-5,0
PLEIADES 1B,2012-068A,2026-03-21T06:27:57.036960,14.58535205,.00015073,98.1998,156.5146,78.1809,281.9559,0,U,39019,999,70803,.27849637E-4,.84E-6,0
EUTELSAT 70B,2012-069A,2026-03-21T04:16:21.829152,1.00271479,.00018529,0.0654,351.7598,1.7797,319.7268,0,U,39020,999,4862,0,-.41E-6,0
YAMAL 402,2012-070A,2026-03-20T10:14:26.016000,1.00272918,.00039339,1.0348,85.3170,271.4647,29.6827,0,U,39022,999,4850,0,.89E-6,0
GOKTURK 2,2012-073A,2026-03-21T06:14:48.975648,14.75448665,.00008417,97.6872,282.0692,84.8318,275.2988,0,U,39030,999,71154,.78969911E-4,.49E-5,0
SKYNET 5D,2012-075A,2026-03-21T05:03:15.770880,1.00269110,.00036278,0.0702,349.6815,2.2676,315.3373,0,U,39034,999,4827,0,.102E-5,0
MEXSAT 3,2012-075B,2026-03-21T03:53:38.716224,1.00268488,.0001018,0.0100,171.5615,183.9869,126.7518,0,U,39035,999,617,0,-.23E-6,0
COSMOS 2482 (RODNIK-S 4),2013-001A,2026-03-21T05:23:51.664992,12.42993262,.00270965,82.4930,275.0926,215.4089,144.5193,0,U,39057,999,59778,-.5975289E-3,-.73E-6,0
COSMOS 2483 (RODNIK-S 5),2013-001B,2026-03-21T07:02:47.592096,12.44022617,.00163455,82.4937,269.6922,202.2128,157.8246,0,U,39058,999,59066,-.36059199E-4,.5E-7,0
COSMOS 2484 (RODNIK-S 6),2013-001C,2026-03-21T05:55:22.194624,12.42936504,.00257516,82.4965,276.5836,224.4205,135.4810,0,U,39059,999,59763,-.56675738E-3,-.69E-6,0
TDRS 11,2013-004A,2026-03-21T03:46:33.631680,1.00268282,.00043499,3.3921,29.6758,348.1862,43.0765,0,U,39070,999,4581,0,.83E-6,0
GLOBALSTAR M097,2013-005A,2026-03-20T20:55:26.830848,12.62259945,.00005803,52.0040,152.1720,124.3188,235.7734,0,U,39072,999,60575,-.19389936E-3,-.139E-5,0
GLOBALSTAR M093,2013-005B,2026-03-20T22:11:50.161632,12.62264126,.00007945,52.0095,145.3263,133.6214,226.4719,0,U,39073,999,60571,.17260619E-3,-.73E-6,0
GLOBALSTAR M094,2013-005C,2026-03-21T05:48:10.377792,12.62267214,.00004864,51.9965,58.5649,110.8045,249.2874,0,U,39074,999,60736,-.10343127E-3,-.122E-5,0
GLOBALSTAR M096,2013-005D,2026-03-20T18:43:01.834176,12.62263924,.00005424,52.0057,108.7039,118.9247,241.1674,0,U,39075,999,60622,.68004205E-4,-.92E-6,0
GLOBALSTAR M078,2013-005E,2026-03-20T23:46:33.167424,12.62275022,.00014102,51.9873,192.1932,88.3638,271.7390,0,U,39076,999,60487,-.44670454E-3,-.184E-5,0
GLOBALSTAR M095,2013-005F,2026-03-21T00:24:53.532000,12.62276222,.00011435,52.0072,189.5916,113.7153,246.3834,0,U,39077,999,60473,.73840146E-4,-.91E-6,0
AMAZONAS 3,2013-006A,2026-03-21T01:59:09.009024,1.00273928,.00021698,0.0377,231.4494,105.4216,170.5041,0,U,39078,999,4403,0,-.28E-5,0
